ONEWEB-0372             
1 49298U 21090V   26102.25292040  .00000069  00000+0  13731-3 0  9991
2 49298  87.9138 287.6031 0001842  91.2753 268.8591 13.20773571221133
ONEWEB-0373             
1 49299U 21090W   26101.97685858 -.00000166  00000+0 -43974-3 0  9995
2 49299  87.9132 287.6613 0001690  93.3275 266.8052 13.20769834222281
ONEWEB-0374             
1 49300U 21090X   26102.27684421 -.00000154  00000+0 -44912-3 0  9997
2 49300  87.8931 302.8528 0001597 110.1628 249.9674 13.14502789218904
ONEWEB-0375             
1 49301U 21090Y   26102.26726443  .00000014  00000+0  32680-5 0  9992
2 49301  87.9139 287.5930 0001475 108.9036 251.2257 13.20773608221820
ONEWEB-0376             
1 49302U 21090Z   26102.00022761 -.00000031  00000+0 -10981-3 0  9996
2 49302  87.9176 318.1597 0001929  83.5669 276.5683 13.19724491217727
ONEWEB-0377             
1 49303U 21090AA  26102.25320153 -.00000037  00000+0 -12209-3 0  9991
2 49303  87.9138 287.5973 0001562  89.2213 270.9100 13.20769295221814
ONEWEB-0378             
1 49304U 21090AB  26102.27528898  .00000034  00000+0  50554-4 0  9991
2 49304  87.9135 287.6018 0001715  96.6536 263.4792 13.20772991221083
ONEWEB-0379             
1 49305U 21090AC  26102.27208303 -.00000153  00000+0 -44782-3 0  9997
2 49305  87.8935 302.8644 0001733  93.3461 266.7867 13.14502127218908
ONEWEB-0380             
1 49306U 21090AD  26102.30031671  .00000057  00000+0  10993-3 0  9992
2 49306  87.9167 318.1119 0001495  86.7177 273.4127 13.19727340217734
ONEWEB-0381             
1 49307U 21090AE  26102.24991259  .00000052  00000+0  96200-4 0  9994
2 49307  87.9139 287.6024 0001647 100.1887 259.9432 13.20772417221120
ONEWEB-0382             
1 49308U 21090AF  26102.23728691  .00000192  00000+0  44118-3 0  9997
2 49308  87.9144 287.6007 0001719 102.7586 257.3740 13.20771617221116
ONEWEB-0383             
1 49309U 21090AG  26102.11350029 -.00000156  00000+0 -45638-3 0  9991
2 49309  87.8940 302.8829 0001811  94.0764 266.0573 13.14501550218911
ONEWEB-0384             
1 49310U 21090AH  26102.00041945  .00000059  00000+0  11298-3 0  9990
2 49310  87.9139 287.6910 0001911 107.9887 252.1455 13.20809317221093
ONEWEB-0385             
1 49311U 21090AJ  26102.22938192  .00000159  00000+0  36016-3 0  9990
2 49311  87.9136 287.6067 0001712  98.5992 261.5335 13.20773761221099
ONEWEB-0386             
1 49312U 21090AK  26102.01947491  .00000056  00000+0  10525-3 0  9993
2 49312  87.9147 287.6355 0001798 100.5303 259.6033 13.20773203221089
ONEWEB-0387             
1 49313U 21090AL  26102.23095612  .00000097  00000+0  20700-3 0  9998
2 49313  87.9130 287.6255 0001435  96.0674 264.0623 13.20769688221110
