[{"OBJECT_NAME":"ONEWEB-0372","OBJECT_ID":"2021-090V","EPOCH":"2026-04-12T06:04:12.322560","MEAN_MOTION":13.20773571,"ECCENTRICITY":0.0001842,"INCLINATION":87.9138,"RA_OF_ASC_NODE":287.6031,"ARG_OF_PERICENTER":91.2753,"MEAN_ANOMALY":268.8591,"EPHEMERIS_TYPE":0,"CLASSIFICATION_TYPE":"U","NORAD_CAT_ID":49298,"ELEMENT_SET_NO":999,"REV_AT_EPOCH":22113,"BSTAR":0.00013731,"MEAN_MOTION_DOT":6.9e-07,"MEAN_MOTION_DDOT":0.0},{"OBJECT_NAME":"ONEWEB-0373","OBJECT_ID":"2021-090W","EPOCH":"2026-04-11T23:26:40.581312","MEAN_MOTION":13.20769834,"ECCENTRICITY":0.000169,"INCLINATION":87.9132,"RA_OF_ASC_NODE":287.6613,"ARG_OF_PERICENTER":93.3275,"MEAN_ANOMALY":266.8052,"EPHEMERIS_TYPE":0,"CLASSIFICATION_TYPE":"U","NORAD_CAT_ID":49299,"ELEMENT_SET_NO":999,"REV_AT_EPOCH":22228,"BSTAR":-0.00043974000000000004,"MEAN_MOTION_DOT":-1.66e-06,"MEAN_MOTION_DDOT":0.0},{"OBJECT_NAME":"ONEWEB-0374","OBJECT_ID":"2021-090X","EPOCH":"2026-04-12T06:38:39.339744","MEAN_MOTION":13.14502789,"ECCENTRICITY":0.0001597,"INCLINATION":87.8931,"RA_OF_ASC_NODE":302.8528,"ARG_OF_PERICENTER":110.1628,"MEAN_ANOMALY":249.9674,"EPHEMERIS_TYPE":0,"CLASSIFICATION_TYPE":"U","NORAD_CAT_ID":49300,"ELEMENT_SET_NO":999,"REV_AT_EPOCH":21890,"BSTAR":-0.00044912,"MEAN_MOTION_DOT":-1.54e-06,"MEAN_MOTION_DDOT":0.0},{"OBJECT_NAME":"ONEWEB-0375","OBJECT_ID":"2021-090Y","EPOCH":"2026-04-12T06:24:51.646752","MEAN_MOTION":13.20773608,"ECCENTRICITY":0.0001475,"INCLINATION":87.9139,"RA_OF_ASC_NODE":287.593,"ARG_OF_PERICENTER":108.9036,"MEAN_ANOMALY":251.2257,"EPHEMERIS_TYPE":0,"CLASSIFICATION_TYPE":"U","NORAD_CAT_ID":49301,"ELEMENT_SET_NO":999,"REV_AT_EPOCH":22182,"BSTAR":3.268e-06,"MEAN_MOTION_DOT":1.4e-07,"MEAN_MOTION_DDOT":0.0},{"OBJECT_NAME":"ONEWEB-0376","OBJECT_ID":"2021-090Z","EPOCH":"2026-04-12T00:00:19.665504","MEAN_MOTION":13.19724491,"ECCENTRICITY":0.0001929,"INCLINATION":87.9176,"RA_OF_ASC_NODE":318.1597,"ARG_OF_PERICENTER":83.5669,"MEAN_ANOMALY":276.5683,"EPHEMERIS_TYPE":0,"CLASSIFICATION_TYPE":"U","NORAD_CAT_ID":49302,"ELEMENT_SET_NO":999,"REV_AT_EPOCH":21772,"BSTAR":-0.00010981000000000001,"MEAN_MOTION_DOT":-3.1e-07,"MEAN_MOTION_DDOT":0.0},{"OBJECT_NAME":"ONEWEB-0377","OBJECT_ID":"2021-090AA","EPOCH":"2026-04-12T06:04:36.612192","MEAN_MOTION":13.20769295,"ECCENTRICITY":0.0001562,"INCLINATION":87.9138,"RA_OF_ASC_NODE":287.5973,"ARG_OF_PERICENTER":89.2213,"MEAN_ANOMALY":270.91,"EPHEMERIS_TYPE":0,"CLASSIFICATION_TYPE":"U","NORAD_CAT_ID":49303,"ELEMENT_SET_NO":999,"REV_AT_EPOCH":22181,"BSTAR":-0.00012209000000000002,"MEAN_MOTION_DOT":-3.7e-07,"MEAN_MOTION_DDOT":0.0},{"OBJECT_NAME":"ONEWEB-0378","OBJECT_ID":"2021-090AB","EPOCH":"2026-04-12T06:36:24.967872","MEAN_MOTION":13.20772991,"ECCENTRICITY":0.0001715,"INCLINATION":87.9135,"RA_OF_ASC_NODE":287.6018,"ARG_OF_PERICENTER":96.6536,"MEAN_ANOMALY":263.4792,"EPHEMERIS_TYPE":0,"CLASSIFICATION_TYPE":"U","NORAD_CAT_ID":49304,"ELEMENT_SET_NO":999,"REV_AT_EPOCH":22108,"BSTAR":5.0554000000000004e-05,"MEAN_MOTION_DOT":3.4e-07,"MEAN_MOTION_DDOT":0.0},{"OBJECT_NAME":"ONEWEB-0379","OBJECT_ID":"2021-090AC","EPOCH":"2026-04-12T06:31:47.973792","MEAN_MOTION":13.14502127,"ECCENTRICITY":0.0001733,"INCLINATION":87.8935,"RA_OF_ASC_NODE":302.8644,"ARG_OF_PERICENTER":93.3461,"MEAN_ANOMALY":266.7867,"EPHEMERIS_TYPE":0,"CLASSIFICATION_TYPE":"U","NORAD_CAT_ID":49305,"ELEMENT_SET_NO":999,"REV_AT_EPOCH":21890,"BSTAR":-0.00044782,"MEAN_MOTION_DOT":-1.53e-06,"MEAN_MOTION_DDOT":0.0},{"OBJECT_NAME":"ONEWEB-0380","OBJECT_ID":"2021-090AD","EPOCH":"2026-04-12T07:12:27.363744","MEAN_MOTION":13.1972734,"ECCENTRICITY":0.0001495,"INCLINATION":87.9167,"RA_OF_ASC_NODE":318.1119,"ARG_OF_PERICENTER":86.7177,"MEAN_ANOMALY":273.4127,"EPHEMERIS_TYPE":0,"CLASSIFICATION_TYPE":"U","NORAD_CAT_ID":49306,"ELEMENT_SET_NO":999,"REV_AT_EPOCH":21773,"BSTAR":0.00010993,"MEAN_MOTION_DOT":5.7e-07,"MEAN_MOTION_DDOT":0.0},{"OBJECT_NAME":"ONEWEB-0381","OBJECT_ID":"2021-090AE","EPOCH":"2026-04-12T05:59:52.447776","MEAN_MOTION":13.20772417,"ECCENTRICITY":0.0001647,"INCLINATION":87.9139,"RA_OF_ASC_NODE":287.6024,"ARG_OF_PERICENTER":100.1887,"MEAN_ANOMALY":259.9432,"EPHEMERIS_TYPE":0,"CLASSIFICATION_TYPE":"U","NORAD_CAT_ID":49307,"ELEMENT_SET_NO":999,"REV_AT_EPOCH":22112,"BSTAR":9.620000000000001e-05,"MEAN_MOTION_DOT":5.2e-07,"MEAN_MOTION_DDOT":0.0},{"OBJECT_NAME":"ONEWEB-0382","OBJECT_ID":"2021-090AF","EPOCH":"2026-04-12T05:41:41.589024","MEAN_MOTION":13.20771617,"ECCENTRICITY":0.0001719,"INCLINATION":87.9144,"RA_OF_ASC_NODE":287.6007,"ARG_OF_PERICENTER":102.7586,"MEAN_ANOMALY":257.374,"EPHEMERIS_TYPE":0,"CLASSIFICATION_TYPE":"U","NORAD_CAT_ID":49308,"ELEMENT_SET_NO":999,"REV_AT_EPOCH":22111,"BSTAR":0.00044118,"MEAN_MOTION_DOT":1.92e-06,"MEAN_MOTION_DDOT":0.0},{"OBJECT_NAME":"ONEWEB-0383","OBJECT_ID":"2021-090AG","EPOCH":"2026-04-12T02:43:26.425056","MEAN_MOTION":13.1450155,"ECCENTRICITY":0.0001811,"INCLINATION":87.894,"RA_OF_ASC_NODE":302.8829,"ARG_OF_PERICENTER":94.0764,"MEAN_ANOMALY":266.0573,"EPHEMERIS_TYPE":0,"CLASSIFICATION_TYPE":"U","NORAD_CAT_ID":49309,"ELEMENT_SET_NO":999,"REV_AT_EPOCH":21891,"BSTAR":-0.00045638,"MEAN_MOTION_DOT":-1.56e-06,"MEAN_MOTION_DDOT":0.0},{"OBJECT_NAME":"ONEWEB-0384","OBJECT_ID":"2021-090AH","EPOCH":"2026-04-12T00:00:36.240480","MEAN_MOTION":13.20809317,"ECCENTRICITY":0.0001911,"INCLINATION":87.9139,"RA_OF_ASC_NODE":287.691,"ARG_OF_PERICENTER":107.9887,"MEAN_ANOMALY":252.1455,"EPHEMERIS_TYPE":0,"CLASSIFICATION_TYPE":"U","NORAD_CAT_ID":49310,"ELEMENT_SET_NO":999,"REV_AT_EPOCH":22109,"BSTAR":0.00011298,"MEAN_MOTION_DOT":5.9e-07,"MEAN_MOTION_DDOT":0.0},{"OBJECT_NAME":"ONEWEB-0385","OBJECT_ID":"2021-090AJ","EPOCH":"2026-04-12T05:30:18.597888","MEAN_MOTION":13.20773761,"ECCENTRICITY":0.0001712,"INCLINATION":87.9136,"RA_OF_ASC_NODE":287.6067,"ARG_OF_PERICENTER":98.5992,"MEAN_ANOMALY":261.5335,"EPHEMERIS_TYPE":0,"CLASSIFICATION_TYPE":"U","NORAD_CAT_ID":49311,"ELEMENT_SET_NO":999,"REV_AT_EPOCH":22109,"BSTAR":0.00036016,"MEAN_MOTION_DOT":1.59e-06,"MEAN_MOTION_DDOT":0.0},{"OBJECT_NAME":"ONEWEB-0386","OBJECT_ID":"2021-090AK","EPOCH":"2026-04-12T00:28:02.632224","MEAN_MOTION":13.20773203,"ECCENTRICITY":0.0001798,"INCLINATION":87.9147,"RA_OF_ASC_NODE":287.6355,"ARG_OF_PERICENTER":100.5303,"MEAN_ANOMALY":259.6033,"EPHEMERIS_TYPE":0,"CLASSIFICATION_TYPE":"U","NORAD_CAT_ID":49312,"ELEMENT_SET_NO":999,"REV_AT_EPOCH":22108,"BSTAR":0.00010525,"MEAN_MOTION_DOT":5.6e-07,"MEAN_MOTION_DDOT":0.0},{"OBJECT_NAME":"ONEWEB-0387","OBJECT_ID":"2021-090AL","EPOCH":"2026-04-12T05:32:34.608768","MEAN_MOTION":13.20769688,"ECCENTRICITY":0.0001435,"INCLINATION":87.913,"RA_OF_ASC_NODE":287.6255,"ARG_OF_PERICENTER":96.0674,"MEAN_ANOMALY":264.0623,"EPHEMERIS_TYPE":0,"CLASSIFICATION_TYPE":"U","NORAD_CAT_ID":49313,"ELEMENT_SET_NO":999,"REV_AT_EPOCH":22111,"BSTAR":0.000207,"MEAN_MOTION_DOT":9.7e-07,"MEAN_MOTION_DDOT":0.0}]